[
  {
    "name": "CHINASAT 3B",
    "line1": "1 64062U 25106A   26172.92220437 -.00000045  00000+0  00000+0 0  9997",
    "line2": "2 64062   0.0405 164.4682 0003337 322.0773 282.8640  1.00271074  4107"
  },
  {
    "name": "SXM-10",
    "line1": "1 64290U 25122A   26171.36544730 -.00000022  00000+0  00000+0 0  9995",
    "line2": "2 64290   0.0222  37.6064 0001887 326.2448 280.1173  1.00272116  3711"
  },
  {
    "name": "CHINASAT 9C",
    "line1": "1 64470U 25132A   26171.33878891 -.00000252  00000+0  00000+0 0  9996",
    "line2": "2 64470   0.0131  73.6837 0003074  13.1824  35.8296  1.00273457  4180"
  },
  {
    "name": "MTG-S1",
    "line1": "1 64723U 25143A   26171.39155049 -.00000005  00000+0  00000+0 0  9994",
    "line2": "2 64723   0.6001 339.7327 0000829 294.1194 133.2187  1.00399694  3452"
  },
  {
    "name": "DROR 1",
    "line1": "1 64784U 25148A   26171.39120382 -.00000039  00000+0  00000+0 0  9995",
    "line2": "2 64784   0.0439  72.5487 0002642 318.5944  14.2794  1.00271314  3322"
  },
  {
    "name": "SHIYAN-29",
    "line1": "1 65486U 25196A   26171.05415719 -.00000285  00000+0  00000+0 0  9995",
    "line2": "2 65486  28.8247  18.4992 0012539 177.1148 186.8195  1.00284739  2918"
  },
  {
    "name": "NUSANTARA LIMA (NUSANT*)",
    "line1": "1 65588U 25205A   26171.34303559 -.00000362  00000+0  00000+0 0  9995",
    "line2": "2 65588   0.0404 170.4876 0000107 328.8729   5.5338  1.00270872  2757"
  },
  {
    "name": "TJS-20",
    "line1": "1 66142U 25238A   26171.01460796  .00000019  00000+0  00000+0 0  9997",
    "line2": "2 66142   5.4622 299.5493 0004189 158.1883 238.2077  1.00267297  2361"
  },
  {
    "name": "CMS-03 (GSAT-7R)",
    "line1": "1 66311U 25249B   26171.40667204 -.00000081  00000+0  00000+0 0  9993",
    "line2": "2 66311   0.0166  80.7193 0001691   2.1969  46.0837  1.00271464  2380"
  },
  {
    "name": "VIASAT-3 F2",
    "line1": "1 66454U 25261A   26170.87735519 -.00000239  00000+0  00000+0 0  9995",
    "line2": "2 66454   0.0363 174.4747 0000047 277.7870  52.7047  1.00270370  2829"
  },
  {
    "name": "SHIJIAN-28 (SJ-28)",
    "line1": "1 66549U 25277A   26171.47940817 -.00000364  00000+0  00000+0 0  9992",
    "line2": "2 66549   4.5287 272.0817 0001125  39.3140 246.6563  1.00276035  2181"
  },
  {
    "name": "TJS-22",
    "line1": "1 66990U 25290A   26171.86576182 -.00000011  00000+0  00000+0 0  9999",
    "line2": "2 66990   1.5201 286.6283 0001975 330.4567  30.1809  1.00274221  2064"
  },
  {
    "name": "TJS-23",
    "line1": "1 67226U 25306A   26170.59511561  .00000010  00000+0  00000+0 0  9997",
    "line2": "2 67226   5.5825 297.4740 0004725 175.6001 184.5544  1.00266223  1915"
  },
  {
    "name": "ELEKTRO-L 5",
    "line1": "1 67756U 26028A   26171.04359116 -.00000103  00000+0  00000+0 0  9998",
    "line2": "2 67756   0.2466 312.6978 0001749 180.6855 226.6194  1.00272291  1286"
  },
  {
    "name": "JAM-E JAM 1",
    "line1": "1 67757U 26028B   26170.61453200  .00000150  00000+0  00000+0 0  9991",
    "line2": "2 67757   0.2541 303.2318 0001101 292.6751 287.1607  1.00277035  1143"
  },
  {
    "name": "ECHOSTAR 25",
    "line1": "1 68126U 26045A   26171.13510616 -.00000061  00000+0  00000+0 0  9996",
    "line2": "2 68126   0.0191  32.9364 0001942  58.2837 115.7547  1.00270586  1024"
  },
  {
    "name": "O3B FM5",
    "line1": "1 39188U 13031A   26171.23823031 -.00000024  00000+0  00000+0 0  9991",
    "line2": "2 39188   0.0979 343.2810 0002917  92.7743 283.9749  5.00115674237191"
  },
  {
    "name": "O3B FM4",
    "line1": "1 39189U 13031B   26170.15831673 -.00000024  00000+0  00000+0 0  9993",
    "line2": "2 39189   0.0422 346.3689 0005069  90.8982 282.7872  5.00115263237141"
  },
  {
    "name": "O3B FM2",
    "line1": "1 39190U 13031C   26171.02338341 -.00000024  00000+0  00000+0 0  9996",
    "line2": "2 39190   0.0372 341.1553 0002756 104.1157 274.7581  5.00116048237255"
  },
  {
    "name": "O3B PFM",
    "line1": "1 39191U 13031D   26171.23739391 -.00000024  00000+0  00000+0 0  9990",
    "line2": "2 39191   0.0676 351.4590 0005350  91.4750 277.1245  5.00116016236829"
  },
  {
    "name": "O3B FM3",
    "line1": "1 40079U 14038A   26171.10418086 -.00000024  00000+0  00000+0 0  9996",
    "line2": "2 40079   0.0480 353.7178 0002353 153.7057 212.5887  5.00115672213195"
  },
  {
    "name": "O3B FM7",
    "line1": "1 40080U 14038B   26171.25018743 -.00000024  00000+0  00000+0 0  9990",
    "line2": "2 40080   0.0470 344.8361 0003798  77.2780 297.9219  5.00115643218030"
  },
  {
    "name": "O3B FM6",
    "line1": "1 40081U 14038C   26171.27716725 -.00000024  00000+0  00000+0 0  9998",
    "line2": "2 40081   0.0470 350.4633 0002637  97.5493 272.0152  5.00115726217988"
  },
  {
    "name": "O3B FM8",
    "line1": "1 40082U 14038D   26171.13052873 -.00000024  00000+0  00000+0 0  9991",
    "line2": "2 40082   0.0470 349.2203 0002757 101.3096 269.4992  5.00116050218090"
  },
  {
    "name": "O3B FM10",
    "line1": "1 40348U 14083A   26169.75852308 -.00000023  00000+0  00000+0 0  9991",
    "line2": "2 40348   0.0376 329.7309 0002678 117.5455 272.7519  5.00115243209972"
  },
  {
    "name": "O3B FM11",
    "line1": "1 40349U 14083B   26170.57073489 -.00000024  00000+0  00000+0 0  9990",
    "line2": "2 40349   0.0555 354.2093 0002686  77.7175 288.1001  5.00115539210034"
  }
]