satellite_id,OBJECT_NAME,OBJECT_ID,EPOCH,MEAN_MOTION,ECCENTRICITY,INCLINATION,RA_OF_ASC_NODE,ARG_OF_PERICENTER,MEAN_ANOMALY,EPHEMERIS_TYPE,CLASSIFICATION_TYPE,NORAD_CAT_ID,ELEMENT_SET_NO,REV_AT_EPOCH,BSTAR,MEAN_MOTION_DOT,MEAN_MOTION_DDOT,operator,orbit_type,eccentricity_risk
555,CHINASAT 3B,2025-106A,2026-06-21T22:07:58.457568,1.00271074,0.0003337,0.0405,164.4682,322.0773,282.864,0,U,64062,999,410,0,-4.5e-07,0,GEO,GEO,0.3337
556,SXM-10,2025-122A,2026-06-20T08:46:14.646720,1.00272116,0.0001887,0.0222,37.6064,326.2448,280.1173,0,U,64290,999,371,0,-2.2e-07,0,GEO,GEO,0.1887
558,CHINASAT 9C,2025-132A,2026-06-20T08:07:51.361824,1.00273457,0.0003074,0.0131,73.6837,13.1824,35.8296,0,U,64470,999,418,0,-2.52e-06,0,GEO,GEO,0.3074
559,MTG-S1,2025-143A,2026-06-20T09:23:49.962336,1.00399694,8.29e-05,0.6001,339.7327,294.1194,133.2187,0,U,64723,999,345,0,-5e-08,0,GEO,GEO,0.0829
560,DROR 1,2025-148A,2026-06-20T09:23:20.010048,1.00271314,0.0002642,0.0439,72.5487,318.5944,14.2794,0,U,64784,999,332,0,-3.9e-07,0,GEO,GEO,0.2642
561,SHIYAN-29,2025-196A,2026-06-20T01:17:59.181216,1.00284739,0.00125398,28.8247,18.4992,177.1148,186.8195,0,U,65486,999,291,0,-2.85e-06,0,GEO,NON_GEO,1.25398
562,NUSANTARA LIMA (NUSANTARA 5),2025-205A,2026-06-20T08:13:58.274976,1.00270872,1.07e-05,0.0404,170.4876,328.8729,5.5338,0,U,65588,999,275,0,-3.62e-06,0,GEO,GEO,0.0107
563,TJS-20,2025-238A,2026-06-20T00:21:02.127744,1.00267297,0.00041897,5.4622,299.5493,158.1883,238.2077,0,U,66142,999,236,0,1.9e-07,0,GEO,NON_GEO,0.41897
564,CMS-03 (GSAT-7R),2025-249B,2026-06-20T09:45:36.464256,1.00271464,0.0001691,0.0166,80.7193,2.1969,46.0837,0,U,66311,999,238,0,-8.1e-07,0,GEO,GEO,0.1691
565,VIASAT-3 F2,2025-261A,2026-06-19T21:03:23.488416,1.0027037,4.79e-06,0.0363,174.4747,277.787,52.7047,0,U,66454,999,282,0,-2.39e-06,0,GEO,GEO,0.00479
566,SHIJIAN-28 (SJ-28),2025-277A,2026-06-20T11:30:20.865888,1.00276035,0.0001125,4.5287,272.0817,39.314,246.6563,0,U,66549,999,218,0,-3.64e-06,0,GEO,GEO,0.1125
567,TJS-22,2025-290A,2026-06-20T20:46:41.821248,1.00274221,0.0001975,1.5201,286.6283,330.4567,30.1809,0,U,66990,999,206,0,-1.1e-07,0,GEO,GEO,0.1975
568,TJS-23,2025-306A,2026-06-19T14:16:57.988704,1.00266223,0.00047257,5.5825,297.474,175.6001,184.5544,0,U,67226,999,191,0,1e-07,0,GEO,NON_GEO,0.47257
572,ELEKTRO-L 5,2026-028A,2026-06-20T01:02:46.276224,1.00272291,0.00017499,0.2466,312.6978,180.6855,226.6194,0,U,67756,999,128,0,-1.03e-06,0,GEO,GEO,0.17499
573,JAM-E JAM 1,2026-028B,2026-06-19T14:44:55.564800,1.00277035,0.00011012,0.2541,303.2318,292.6751,287.1607,0,U,67757,999,114,0,1.5e-06,0,GEO,GEO,0.11012
574,ECHOSTAR 25,2026-045A,2026-06-20T03:14:33.172224,1.00270586,0.00019425,0.0191,32.9364,58.2837,115.7547,0,U,68126,999,102,0,-6.1e-07,0,GEO,GEO,0.19425
575,O3B FM5,2013-031A,2026-06-20T05:43:03.098784,5.00115674,0.0002917,0.0979,343.281,92.7743,283.9749,0,U,39188,999,23719,0,-2.4e-07,0,SES,GEO,0.2917
576,O3B FM4,2013-031B,2026-06-19T03:47:58.565472,5.00115263,0.00050694,0.0422,346.3689,90.8982,282.7872,0,U,39189,999,23714,0,-2.4e-07,0,SES,GEO,0.50694
577,O3B FM2,2013-031C,2026-06-20T00:33:40.326624,5.00116048,0.0002756,0.0372,341.1553,104.1157,274.7581,0,U,39190,999,23725,0,-2.4e-07,0,SES,GEO,0.2755999999999999
578,O3B PFM,2013-031D,2026-06-20T05:41:50.833824,5.00116016,0.000535,0.0676,351.459,91.475,277.1245,0,U,39191,999,23682,0,-2.4e-07,0,SES,GEO,0.535
579,O3B FM3,2014-038A,2026-06-20T02:30:01.226304,5.00115672,0.0002353,0.048,353.7178,153.7057,212.5887,0,U,40079,999,21319,0,-2.4e-07,0,SES,GEO,0.2353
580,O3B FM7,2014-038B,2026-06-20T06:00:16.193952,5.00115643,0.0003798,0.047,344.8361,77.278,297.9219,0,U,40080,999,21803,0,-2.4e-07,0,SES,GEO,0.3798
581,O3B FM6,2014-038C,2026-06-20T06:39:07.250400,5.00115726,0.0002637,0.047,350.4633,97.5493,272.0152,0,U,40081,999,21798,0,-2.4e-07,0,SES,GEO,0.2637
582,O3B FM8,2014-038D,2026-06-20T03:07:57.682272,5.0011605,0.0002757,0.047,349.2203,101.3096,269.4992,0,U,40082,999,21809,0,-2.4e-07,0,SES,GEO,0.2757
583,O3B FM10,2014-083A,2026-06-18T18:12:16.394112,5.00115243,0.00026782,0.0376,329.7309,117.5455,272.7519,0,U,40348,999,20997,0,-2.3e-07,0,SES,GEO,0.26782
584,O3B FM11,2014-083B,2026-06-19T13:41:51.494496,5.00115539,0.00026869,0.0555,354.2093,77.7175,288.1001,0,U,40349,999,21003,0,-2.4e-07,0,SES,GEO,0.26869
